[{"OBJECT_NAME":"SPIP","OBJECT_ID":"2023-174AU","EPOCH":"2026-03-09T22:52:46.383168","MEAN_MOTION":15.26695413,"ECCENTRICITY":0.00100427,"INCLINATION":97.3901,"RA_OF_ASC_NODE":146.4534,"ARG_OF_PERICENTER":168.1112,"MEAN_ANOMALY":192.0366,"EPHEMERIS_TYPE":0,"CLASSIFICATION_TYPE":"U","NORAD_CAT_ID":58298,"ELEMENT_SET_NO":999,"REV_AT_EPOCH":12963,"BSTAR":0.00025731582,"MEAN_MOTION_DOT":6.692e-5,"MEAN_MOTION_DDOT":0},{"OBJECT_NAME":"COSMOS 2251 DEB","OBJECT_ID":"1993-036BK","EPOCH":"2026-03-09T19:57:45.204480","MEAN_MOTION":15.2250442,"ECCENTRICITY":0.00171058,"INCLINATION":74.0815,"RA_OF_ASC_NODE":344.9963,"ARG_OF_PERICENTER":285.2465,"MEAN_ANOMALY":74.6843,"EPHEMERIS_TYPE":0,"CLASSIFICATION_TYPE":"U","NORAD_CAT_ID":33818,"ELEMENT_SET_NO":999,"REV_AT_EPOCH":91183,"BSTAR":0.0028725842,"MEAN_MOTION_DOT":0.00067433,"MEAN_MOTION_DDOT":0}]
